{
  "type": "FeatureCollection",
  "features": [
    {
      "type": "Feature",
      "properties": {
        "norad_id": 63632,
        "name": "SHENZHOU-20 (SZ-20)",
        "group": "stations",
        "lat": 14.021919153227874,
        "lon": -127.64500273475981,
        "alt_km": 395.8665722988371,
        "timestamp": "2025-12-04T03:47:53.355380+00:00",
        "meta_object_name": "SHENZHOU-20 (SZ-20)",
        "meta_object_id": "2025-082A",
        "meta_epoch": "2025-12-03T08:40:01.753824",
        "meta_mean_motion": 15.58580261,
        "meta_eccentricity": 0.00100709,
        "meta_inclination": 41.4677,
        "meta_ra_of_asc_node": 73.6192,
        "meta_arg_of_pericenter": 319.5464,
        "meta_mean_anomaly": 40.4624,
        "meta_ephemeris_type": 0,
        "meta_classification_type": "U",
        "meta_norad_cat_id": 63632,
        "meta_element_set_no": 999,
        "meta_rev_at_epoch": 25530,
        "meta_bstar": 0.00034171532,
        "meta_mean_motion_dot": 0.00026743,
        "meta_mean_motion_ddot": 0,
        "tle_line1": "1 63632U 25082A   25337.36113141  .00026743  00000+0  34172-3 0  9998",
        "tle_line2": "2 63632  41.4677  73.6192 0010070 319.5464  40.4624 15.58580261255305"
      },
      "geometry": {
        "type": "Point",
        "coordinates": [
          -127.64500273475981,
          14.021919153227874
        ]
      }
    },
    {
      "type": "Feature",
      "properties": {
        "norad_id": 64751,
        "name": "PROGRESS-MS 31",
        "group": "stations",
        "lat": 8.171771809678356,
        "lon": -168.50490348660247,
        "alt_km": 420.8188666059177,
        "timestamp": "2025-12-04T03:47:53.355391+00:00",
        "meta_object_name": "PROGRESS-MS 31",
        "meta_object_id": "2025-146A",
        "meta_epoch": "2025-12-03T01:26:08.635488",
        "meta_mean_motion": 15.49262423,
        "meta_eccentricity": 0.00036204,
        "meta_inclination": 51.6309,
        "meta_ra_of_asc_node": 190.4017,
        "meta_arg_of_pericenter": 198.708,
        "meta_mean_anomaly": 161.3776,
        "meta_ephemeris_type": 0,
        "meta_classification_type": "U",
        "meta_norad_cat_id": 64751,
        "meta_element_set_no": 999,
        "meta_rev_at_epoch": 675,
        "meta_bstar": 0.00021764811,
        "meta_mean_motion_dot": 0.0001167,
        "meta_mean_motion_ddot": 0,
        "tle_line1": "1 64751U 25146A   25337.05982217  .00011670  00000+0  21765-3 0  9993",
        "tle_line2": "2 64751  51.6309 190.4017 0003620 198.7080 161.3776 15.49262423  6752"
      },
      "geometry": {
        "type": "Point",
        "coordinates": [
          -168.50490348660247,
          8.171771809678356
        ]
      }
    },
    {
      "type": "Feature",
      "properties": {
        "norad_id": 64786,
        "name": "TIANZHOU-9",
        "group": "stations",
        "lat": 14.021918204913957,
        "lon": -127.64500154698403,
        "alt_km": 395.8665724038783,
        "timestamp": "2025-12-04T03:47:53.355403+00:00",
        "meta_object_name": "TIANZHOU-9",
        "meta_object_id": "2025-149A",
        "meta_epoch": "2025-12-03T08:40:01.753824",
        "meta_mean_motion": 15.58580261,
        "meta_eccentricity": 0.00100709,
        "meta_inclination": 41.4677,
        "meta_ra_of_asc_node": 73.6192,
        "meta_arg_of_pericenter": 319.5464,
        "meta_mean_anomaly": 40.4624,
        "meta_ephemeris_type": 0,
        "meta_classification_type": "U",
        "meta_norad_cat_id": 64786,
        "meta_element_set_no": 999,
        "meta_rev_at_epoch": 25530,
        "meta_bstar": 0.00034171532,
        "meta_mean_motion_dot": 0.00026743,
        "meta_mean_motion_ddot": 0,
        "tle_line1": "1 64786U 25149A   25337.36113141  .00026743  00000+0  34172-3 0  9993",
        "tle_line2": "2 64786  41.4677  73.6192 0010070 319.5464  40.4624 15.58580261255306"
      },
      "geometry": {
        "type": "Point",
        "coordinates": [
          -127.64500154698403,
          14.021918204913957
        ]
      }
    },
    {
      "type": "Feature",
      "properties": {
        "norad_id": 65077,
        "name": "CREW DRAGON 11",
        "group": "stations",
        "lat": 8.171773016635012,
        "lon": -168.5049025056351,
        "alt_km": 420.8188664449426,
        "timestamp": "2025-12-04T03:47:53.355415+00:00",
        "meta_object_name": "CREW DRAGON 11",
        "meta_object_id": "2025-166A",
        "meta_epoch": "2025-12-03T01:26:08.635488",
        "meta_mean_motion": 15.49262423,
        "meta_eccentricity": 0.00036204,
        "meta_inclination": 51.6309,
        "meta_ra_of_asc_node": 190.4017,
        "meta_arg_of_pericenter": 198.708,
        "meta_mean_anomaly": 161.3776,
        "meta_ephemeris_type": 0,
        "meta_classification_type": "U",
        "meta_norad_cat_id": 65077,
        "meta_element_set_no": 999,
        "meta_rev_at_epoch": 214,
        "meta_bstar": 0.00021764811,
        "meta_mean_motion_dot": 0.0001167,
        "meta_mean_motion_ddot": 0,
        "tle_line1": "1 65077U 25166A   25337.05982217  .00011670  00000+0  21765-3 0  9997",
        "tle_line2": "2 65077  51.6309 190.4017 0003620 198.7080 161.3776 15.49262423  2143"
      },
      "geometry": {
        "type": "Point",
        "coordinates": [
          -168.5049025056351,
          8.171773016635012
        ]
      }
    },
    {
      "type": "Feature",
      "properties": {
        "norad_id": 65304,
        "name": "DRAGON CRS-33",
        "group": "stations",
        "lat": 8.171773519532627,
        "lon": -168.50490209689946,
        "alt_km": 420.8188663778674,
        "timestamp": "2025-12-04T03:47:53.355425+00:00",
        "meta_object_name": "DRAGON CRS-33",
        "meta_object_id": "2025-186A",
        "meta_epoch": "2025-12-03T01:26:08.635488",
        "meta_mean_motion": 15.49262423,
        "meta_eccentricity": 0.00036204,
        "meta_inclination": 51.6309,
        "meta_ra_of_asc_node": 190.4017,
        "meta_arg_of_pericenter": 198.708,
        "meta_mean_anomaly": 161.3776,
        "meta_ephemeris_type": 0,
        "meta_classification_type": "U",
        "meta_norad_cat_id": 65304,
        "meta_element_set_no": 999,
        "meta_rev_at_epoch": 11,
        "meta_bstar": 0.00021764811,
        "meta_mean_motion_dot": 0.0001167,
        "meta_mean_motion_ddot": 0,
        "tle_line1": "1 65304U 25186A   25337.05982217  .00011670  00000+0  21765-3 0  9992",
        "tle_line2": "2 65304  51.6309 190.4017 0003620 198.7080 161.3776 15.49262423   111"
      },
      "geometry": {
        "type": "Point",
        "coordinates": [
          -168.50490209689946,
          8.171773519532627
        ]
      }
    },
    {
      "type": "Feature",
      "properties": {
        "norad_id": 65586,
        "name": "PROGRESS-MS 32",
        "group": "stations",
        "lat": 8.171774022430917,
        "lon": -168.50490168816333,
        "alt_km": 420.8188663107949,
        "timestamp": "2025-12-04T03:47:53.355435+00:00",
        "meta_object_name": "PROGRESS-MS 32",
        "meta_object_id": "2025-204A",
        "meta_epoch": "2025-12-03T01:26:08.635488",
        "meta_mean_motion": 15.49262423,
        "meta_eccentricity": 0.00036204,
        "meta_inclination": 51.6309,
        "meta_ra_of_asc_node": 190.4017,
        "meta_arg_of_pericenter": 198.708,
        "meta_mean_anomaly": 161.3776,
        "meta_ephemeris_type": 0,
        "meta_classification_type": "U",
        "meta_norad_cat_id": 65586,
        "meta_element_set_no": 999,
        "meta_rev_at_epoch": 27,
        "meta_bstar": 0.00021764811,
        "meta_mean_motion_dot": 0.0001167,
        "meta_mean_motion_ddot": 0,
        "tle_line1": "1 65586U 25204A   25337.05982217  .00011670  00000+0  21765-3 0  9995",
        "tle_line2": "2 65586  51.6309 190.4017 0003620 198.7080 161.3776 15.49262423   270"
      },
      "geometry": {
        "type": "Point",
        "coordinates": [
          -168.50490168816333,
          8.171774022430917
        ]
      }
    },
    {
      "type": "Feature",
      "properties": {
        "norad_id": 65616,
        "name": "CYGNUS NG-23",
        "group": "stations",
        "lat": 8.17177583286587,
        "lon": -168.50490021671223,
        "alt_km": 420.81886606932767,
        "timestamp": "2025-12-04T03:47:53.355471+00:00",
        "meta_object_name": "CYGNUS NG-23",
        "meta_object_id": "2025-208A",
        "meta_epoch": "2025-12-03T01:26:08.635488",
        "meta_mean_motion": 15.49262423,
        "meta_eccentricity": 0.00036204,
        "meta_inclination": 51.6309,
        "meta_ra_of_asc_node": 190.4017,
        "meta_arg_of_pericenter": 198.708,
        "meta_mean_anomaly": 161.3776,
        "meta_ephemeris_type": 0,
        "meta_classification_type": "U",
        "meta_norad_cat_id": 65616,
        "meta_element_set_no": 999,
        "meta_rev_at_epoch": 22,
        "meta_bstar": 0.00021764811,
        "meta_mean_motion_dot": 0.0001167,
        "meta_mean_motion_ddot": 0,
        "tle_line1": "1 65616U 25208A   25337.05982217  .00011670  00000+0  21765-3 0  9993",
        "tle_line2": "2 65616  51.6309 190.4017 0003620 198.7080 161.3776 15.49262423   229"
      },
      "geometry": {
        "type": "Point",
        "coordinates": [
          -168.50490021671223,
          8.17177583286587
        ]
      }
    }
  ]
}